IXPE                    
1 49954U 21121A   24253.91667824  .00015845  00000+0  11781-2 0  9999
2 49954   0.2285 123.5191 0009228  99.2864 105.6688 14.99751902  5209
